{
  "type": "FeatureCollection",
  "features": [
    {
      "type": "Feature",
      "properties": {
        "norad_id": 46277,
        "name": "NEMO-HD",
        "group": "resource",
        "lat": -5.644800663706815,
        "lon": 55.93784390747694,
        "alt_km": 447.9411935886801,
        "timestamp": "2025-12-22T05:49:03.140108+00:00",
        "meta_object_name": "NEMO-HD",
        "meta_object_id": "2020-061F",
        "meta_epoch": "2025-12-21T20:29:18.485952",
        "meta_mean_motion": 15.40499724,
        "meta_eccentricity": 0.0001307,
        "meta_inclination": 97.2197,
        "meta_ra_of_asc_node": 54.8361,
        "meta_arg_of_pericenter": 51.8685,
        "meta_mean_anomaly": 308.268,
        "meta_ephemeris_type": 0,
        "meta_classification_type": "U",
        "meta_norad_cat_id": 46277,
        "meta_element_set_no": 999,
        "meta_rev_at_epoch": 29464,
        "meta_bstar": 0.00022493,
        "meta_mean_motion_dot": 9.041e-05,
        "meta_mean_motion_ddot": 0,
        "tle_line1": "1 46277U 20061F   25355.85368618  .00009041  00000+0  22493-3 0  9996",
        "tle_line2": "2 46277  97.2197  54.8361 0001307  51.8685 308.2680 15.40499724294641"
      },
      "geometry": {
        "type": "Point",
        "coordinates": [
          55.93784390747694,
          -5.644800663706815
        ]
      }
    },
    {
      "type": "Feature",
      "properties": {
        "norad_id": 46984,
        "name": "SENTINEL-6A",
        "group": "resource",
        "lat": -4.6447679463538885,
        "lon": 140.50065138508188,
        "alt_km": 1339.7938772058678,
        "timestamp": "2025-12-22T05:49:03.140118+00:00",
        "meta_object_name": "SENTINEL-6A",
        "meta_object_id": "2020-086A",
        "meta_epoch": "2025-12-21T18:36:03.861216",
        "meta_mean_motion": 12.80930825,
        "meta_eccentricity": 0.0007721,
        "meta_inclination": 66.0396,
        "meta_ra_of_asc_node": 143.5414,
        "meta_arg_of_pericenter": 269.3497,
        "meta_mean_anomaly": 90.6633,
        "meta_ephemeris_type": 0,
        "meta_classification_type": "U",
        "meta_norad_cat_id": 46984,
        "meta_element_set_no": 999,
        "meta_rev_at_epoch": 23760,
        "meta_bstar": -4.0051e-05,
        "meta_mean_motion_dot": -7e-07,
        "meta_mean_motion_ddot": 0,
        "tle_line1": "1 46984U 20086A   25355.77504469 -.00000070  00000+0 -40051-4 0  9991",
        "tle_line2": "2 46984  66.0396 143.5414 0007721 269.3497  90.6633 12.80930825237605"
      },
      "geometry": {
        "type": "Point",
        "coordinates": [
          140.50065138508188,
          -4.6447679463538885
        ]
      }
    },
    {
      "type": "Feature",
      "properties": {
        "norad_id": 48079,
        "name": "GAOFEN-12 02",
        "group": "resource",
        "lat": -35.60732733019199,
        "lon": 164.43354534317953,
        "alt_km": 635.2316254082607,
        "timestamp": "2025-12-22T05:49:03.140128+00:00",
        "meta_object_name": "GAOFEN-12 02",
        "meta_object_id": "2021-026A",
        "meta_epoch": "2025-12-21T20:44:11.123232",
        "meta_mean_motion": 14.80685138,
        "meta_eccentricity": 0.0003594,
        "meta_inclination": 97.9855,
        "meta_ra_of_asc_node": 349.8265,
        "meta_arg_of_pericenter": 82.8688,
        "meta_mean_anomaly": 277.2933,
        "meta_ephemeris_type": 0,
        "meta_classification_type": "U",
        "meta_norad_cat_id": 48079,
        "meta_element_set_no": 999,
        "meta_rev_at_epoch": 25552,
        "meta_bstar": 5.8477e-05,
        "meta_mean_motion_dot": 3.97e-06,
        "meta_mean_motion_ddot": 0,
        "tle_line1": "1 48079U 21026A   25355.86401763  .00000397  00000+0  58477-4 0  9997",
        "tle_line2": "2 48079  97.9855 349.8265 0003594  82.8688 277.2933 14.80685138255527"
      },
      "geometry": {
        "type": "Point",
        "coordinates": [
          164.43354534317953,
          -35.60732733019199
        ]
      }
    },
    {
      "type": "Feature",
      "properties": {
        "norad_id": 48268,
        "name": "PLEIADES NEO 3",
        "group": "resource",
        "lat": -42.924288678778154,
        "lon": 75.96253498323998,
        "alt_km": 631.3561633105965,
        "timestamp": "2025-12-22T05:49:03.140138+00:00",
        "meta_object_name": "PLEIADES NEO 3",
        "meta_object_id": "2021-034A",
        "meta_epoch": "2025-12-21T20:17:18.867264",
        "meta_mean_motion": 14.81674561,
        "meta_eccentricity": 0.0001397,
        "meta_inclination": 97.895,
        "meta_ra_of_asc_node": 68.156,
        "meta_arg_of_pericenter": 89.5427,
        "meta_mean_anomaly": 270.5945,
        "meta_ephemeris_type": 0,
        "meta_classification_type": "U",
        "meta_norad_cat_id": 48268,
        "meta_element_set_no": 999,
        "meta_rev_at_epoch": 25139,
        "meta_bstar": 6.1005e-05,
        "meta_mean_motion_dot": 4.28e-06,
        "meta_mean_motion_ddot": 0,
        "tle_line1": "1 48268U 21034A   25355.84535726  .00000428  00000+0  61005-4 0  9997",
        "tle_line2": "2 48268  97.8950  68.1560 0001397  89.5427 270.5945 14.81674561251394"
      },
      "geometry": {
        "type": "Point",
        "coordinates": [
          75.96253498323998,
          -42.924288678778154
        ]
      }
    },
    {
      "type": "Feature",
      "properties": {
        "norad_id": 49070,
        "name": "PLEIADES NEO 4",
        "group": "resource",
        "lat": 42.67780580260599,
        "lon": -104.10539142655786,
        "alt_km": 619.9929381831407,
        "timestamp": "2025-12-22T05:49:03.140149+00:00",
        "meta_object_name": "PLEIADES NEO 4",
        "meta_object_id": "2021-073E",
        "meta_epoch": "2025-12-20T17:32:43.601280",
        "meta_mean_motion": 14.81672177,
        "meta_eccentricity": 0.00013249,
        "meta_inclination": 97.8951,
        "meta_ra_of_asc_node": 67.0538,
        "meta_arg_of_pericenter": 89.6187,
        "meta_mean_anomaly": 270.5178,
        "meta_ephemeris_type": 0,
        "meta_classification_type": "U",
        "meta_norad_cat_id": 49070,
        "meta_element_set_no": 999,
        "meta_rev_at_epoch": 23494,
        "meta_bstar": -3.6645539e-05,
        "meta_mean_motion_dot": -3.4e-06,
        "meta_mean_motion_ddot": 0,
        "tle_line1": "1 49070U 21073E   25354.73106020 -.00000340  00000+0 -36646-4 0  9998",
        "tle_line2": "2 49070  97.8951  67.0538 0001324  89.6187 270.5178 14.81672177234945"
      },
      "geometry": {
        "type": "Point",
        "coordinates": [
          -104.10539142655786,
          42.67780580260599
        ]
      }
    },
    {
      "type": "Feature",
      "properties": {
        "norad_id": 49260,
        "name": "LANDSAT 9",
        "group": "resource",
        "lat": 33.80493173835183,
        "lon": 58.66893439264711,
        "alt_km": 699.9469948928163,
        "timestamp": "2025-12-22T05:49:03.140159+00:00",
        "meta_object_name": "LANDSAT 9",
        "meta_object_id": "2021-088A",
        "meta_epoch": "2025-12-21T14:49:42.297024",
        "meta_mean_motion": 14.57106446,
        "meta_eccentricity": 0.0001114,
        "meta_inclination": 98.2083,
        "meta_ra_of_asc_node": 63.5998,
        "meta_arg_of_pericenter": 92.2065,
        "meta_mean_anomaly": 267.9261,
        "meta_ephemeris_type": 0,
        "meta_classification_type": "U",
        "meta_norad_cat_id": 49260,
        "meta_element_set_no": 999,
        "meta_rev_at_epoch": 22514,
        "meta_bstar": 8.8517e-05,
        "meta_mean_motion_dot": 3.54e-06,
        "meta_mean_motion_ddot": 0,
        "tle_line1": "1 49260U 21088A   25355.61785066  .00000354  00000+0  88517-4 0  9993",
        "tle_line2": "2 49260  98.2083  63.5998 0001114  92.2065 267.9261 14.57106446225149"
      },
      "geometry": {
        "type": "Point",
        "coordinates": [
          58.66893439264711,
          33.80493173835183
        ]
      }
    },
    {
      "type": "Feature",
      "properties": {
        "norad_id": 51444,
        "name": "CSG-2",
        "group": "resource",
        "lat": -5.8414525722617965,
        "lon": -3.3901282374198036,
        "alt_km": 626.5217715491535,
        "timestamp": "2025-12-22T05:49:03.140171+00:00",
        "meta_object_name": "CSG-2",
        "meta_object_id": "2022-008A",
        "meta_epoch": "2025-12-21T19:15:38.107296",
        "meta_mean_motion": 14.82153109,
        "meta_eccentricity": 0.000147,
        "meta_inclination": 97.8798,
        "meta_ra_of_asc_node": 176.9887,
        "meta_arg_of_pericenter": 84.0519,
        "meta_mean_anomaly": 276.0861,
        "meta_ephemeris_type": 0,
        "meta_classification_type": "U",
        "meta_norad_cat_id": 51444,
        "meta_element_set_no": 999,
        "meta_rev_at_epoch": 21031,
        "meta_bstar": 0.00010903,
        "meta_mean_motion_dot": 8.16e-06,
        "meta_mean_motion_ddot": 0,
        "tle_line1": "1 51444U 22008A   25355.80252439  .00000816  00000+0  10903-3 0  9993",
        "tle_line2": "2 51444  97.8798 176.9887 0001470  84.0519 276.0861 14.82153109210314"
      },
      "geometry": {
        "type": "Point",
        "coordinates": [
          -3.3901282374198036,
          -5.8414525722617965
        ]
      }
    }
  ]
}